[{"OBJECT_NAME":"YAOGAN-7","OBJECT_ID":"2009-069A","EPOCH":"2026-04-26T15:15:59.202432","MEAN_MOTION":14.77957614,"ECCENTRICITY":0.0023999,"INCLINATION":98.0135,"RA_OF_ASC_NODE":2.8057,"ARG_OF_PERICENTER":202.7099,"MEAN_ANOMALY":157.3052,"EPHEMERIS_TYPE":0,"CLASSIFICATION_TYPE":"U","NORAD_CAT_ID":36110,"ELEMENT_SET_NO":999,"REV_AT_EPOCH":88201,"BSTAR":8.0203e-5,"MEAN_MOTION_DOT":5.27e-6,"MEAN_MOTION_DDOT":0},{"OBJECT_NAME":"TANDEM-X","OBJECT_ID":"2010-030A","EPOCH":"2026-04-26T13:13:25.879008","MEAN_MOTION":15.19146041,"ECCENTRICITY":0.0001754,"INCLINATION":97.4455,"RA_OF_ASC_NODE":124.9929,"ARG_OF_PERICENTER":91.7389,"MEAN_ANOMALY":268.4046,"EPHEMERIS_TYPE":0,"CLASSIFICATION_TYPE":"U","NORAD_CAT_ID":36605,"ELEMENT_SET_NO":999,"REV_AT_EPOCH":87880,"BSTAR":2.6083e-5,"MEAN_MOTION_DOT":4.81e-6,"MEAN_MOTION_DDOT":0},{"OBJECT_NAME":"CARTOSAT-2B","OBJECT_ID":"2010-035A","EPOCH":"2026-04-26T18:35:20.370912","MEAN_MOTION":14.78664614,"ECCENTRICITY":0.0011313,"INCLINATION":98.0001,"RA_OF_ASC_NODE":167.6406,"ARG_OF_PERICENTER":4.6512,"MEAN_ANOMALY":355.4802,"EPHEMERIS_TYPE":0,"CLASSIFICATION_TYPE":"U","NORAD_CAT_ID":36795,"ELEMENT_SET_NO":999,"REV_AT_EPOCH":85225,"BSTAR":0.00012832,"MEAN_MOTION_DOT":8.89e-6,"MEAN_MOTION_DDOT":0},{"OBJECT_NAME":"YAOGAN-10","OBJECT_ID":"2010-038A","EPOCH":"2026-04-26T21:19:08.107392","MEAN_MOTION":14.85184823,"ECCENTRICITY":0.0001338,"INCLINATION":97.9024,"RA_OF_ASC_NODE":140.6985,"ARG_OF_PERICENTER":87.2839,"MEAN_ANOMALY":12.186,"EPHEMERIS_TYPE":0,"CLASSIFICATION_TYPE":"U","NORAD_CAT_ID":36834,"ELEMENT_SET_NO":999,"REV_AT_EPOCH":84959,"BSTAR":0.00014965,"MEAN_MOTION_DOT":1.228e-5,"MEAN_MOTION_DDOT":0},{"OBJECT_NAME":"COSMO-SKYMED 4","OBJECT_ID":"2010-060A","EPOCH":"2026-04-26T19:09:25.456320","MEAN_MOTION":14.8216167,"ECCENTRICITY":0.0001372,"INCLINATION":97.8891,"RA_OF_ASC_NODE":301.142,"ARG_OF_PERICENTER":79.7551,"MEAN_ANOMALY":280.3816,"EPHEMERIS_TYPE":0,"CLASSIFICATION_TYPE":"U","NORAD_CAT_ID":37216,"ELEMENT_SET_NO":999,"REV_AT_EPOCH":83695,"BSTAR":0.00010123,"MEAN_MOTION_DOT":7.54e-6,"MEAN_MOTION_DDOT":0},{"OBJECT_NAME":"RESOURCESAT-2","OBJECT_ID":"2011-015A","EPOCH":"2026-04-26T18:43:16.599936","MEAN_MOTION":14.21599607,"ECCENTRICITY":0.0012083,"INCLINATION":98.7667,"RA_OF_ASC_NODE":184.5701,"ARG_OF_PERICENTER":50.526,"MEAN_ANOMALY":309.6984,"EPHEMERIS_TYPE":0,"CLASSIFICATION_TYPE":"U","NORAD_CAT_ID":37387,"ELEMENT_SET_NO":999,"REV_AT_EPOCH":77887,"BSTAR":8.2146e-5,"MEAN_MOTION_DOT":1.36e-6,"MEAN_MOTION_DDOT":0},{"OBJECT_NAME":"HAIYANG-2A","OBJECT_ID":"2011-043A","EPOCH":"2026-04-26T19:31:28.342272","MEAN_MOTION":13.75948243,"ECCENTRICITY":0.0006666,"INCLINATION":99.3414,"RA_OF_ASC_NODE":120.5687,"ARG_OF_PERICENTER":183.4704,"MEAN_ANOMALY":176.6401,"EPHEMERIS_TYPE":0,"CLASSIFICATION_TYPE":"U","NORAD_CAT_ID":37781,"ELEMENT_SET_NO":999,"REV_AT_EPOCH":73959,"BSTAR":6.3405e-5,"MEAN_MOTION_DOT":1.8e-7,"MEAN_MOTION_DDOT":0},{"OBJECT_NAME":"RASAT","OBJECT_ID":"2011-044D","EPOCH":"2026-04-26T20:53:54.667104","MEAN_MOTION":14.68116336,"ECCENTRICITY":0.0020629,"INCLINATION":98.0542,"RA_OF_ASC_NODE":209.0578,"ARG_OF_PERICENTER":359.0931,"MEAN_ANOMALY":133.5277,"EPHEMERIS_TYPE":0,"CLASSIFICATION_TYPE":"U","NORAD_CAT_ID":37791,"ELEMENT_SET_NO":999,"REV_AT_EPOCH":78565,"BSTAR":0.00010896,"MEAN_MOTION_DOT":5.79e-6,"MEAN_MOTION_DDOT":0},{"OBJECT_NAME":"SRMSAT","OBJECT_ID":"2011-058D","EPOCH":"2026-04-26T19:53:34.907136","MEAN_MOTION":14.11563225,"ECCENTRICITY":0.0011674,"INCLINATION":19.9735,"RA_OF_ASC_NODE":10.3299,"ARG_OF_PERICENTER":359.3388,"MEAN_ANOMALY":61.7748,"EPHEMERIS_TYPE":0,"CLASSIFICATION_TYPE":"U","NORAD_CAT_ID":37841,"ELEMENT_SET_NO":999,"REV_AT_EPOCH":75055,"BSTAR":8.5256e-5,"MEAN_MOTION_DOT":4.22e-6,"MEAN_MOTION_DDOT":0},{"OBJECT_NAME":"PLEIADES 1A","OBJECT_ID":"2011-076F","EPOCH":"2026-04-26T19:48:09.616320","MEAN_MOTION":14.58537451,"ECCENTRICITY":0.0001024,"INCLINATION":98.1983,"RA_OF_ASC_NODE":192.6137,"ARG_OF_PERICENTER":78.3668,"MEAN_ANOMALY":54.4486,"EPHEMERIS_TYPE":0,"CLASSIFICATION_TYPE":"U","NORAD_CAT_ID":38012,"ELEMENT_SET_NO":999,"REV_AT_EPOCH":76450,"BSTAR":8.4773e-5,"MEAN_MOTION_DOT":3.48e-6,"MEAN_MOTION_DDOT":0},{"OBJECT_NAME":"ZIYUAN 1-02C (ZY 1-02C)","OBJECT_ID":"2011-079A","EPOCH":"2026-04-26T21:09:45.027360","MEAN_MOTION":14.38170349,"ECCENTRICITY":0.0007693,"INCLINATION":98.4095,"RA_OF_ASC_NODE":185.2571,"ARG_OF_PERICENTER":99.5956,"MEAN_ANOMALY":19.9009,"EPHEMERIS_TYPE":0,"CLASSIFICATION_TYPE":"U","NORAD_CAT_ID":38038,"ELEMENT_SET_NO":999,"REV_AT_EPOCH":75183,"BSTAR":0.00013674,"MEAN_MOTION_DOT":3.72e-6,"MEAN_MOTION_DDOT":0},{"OBJECT_NAME":"ARIRANG-3 (KOMPSAT-3)","OBJECT_ID":"2012-025B","EPOCH":"2026-04-26T20:17:55.716000","MEAN_MOTION":14.62159648,"ECCENTRICITY":0.0004016,"INCLINATION":98.1135,"RA_OF_ASC_NODE":75.2057,"ARG_OF_PERICENTER":279.4353,"MEAN_ANOMALY":80.6394,"EPHEMERIS_TYPE":0,"CLASSIFICATION_TYPE":"U","NORAD_CAT_ID":38338,"ELEMENT_SET_NO":999,"REV_AT_EPOCH":74384,"BSTAR":0.00011135,"MEAN_MOTION_DOT":5.14e-6,"MEAN_MOTION_DDOT":0},{"OBJECT_NAME":"EXACTVIEW-1 (ADS-1B)","OBJECT_ID":"2012-039C","EPOCH":"2026-04-26T20:13:25.525920","MEAN_MOTION":14.24968703,"ECCENTRICITY":0.0010136,"INCLINATION":98.9702,"RA_OF_ASC_NODE":233.0908,"ARG_OF_PERICENTER":323.9591,"MEAN_ANOMALY":36.0903,"EPHEMERIS_TYPE":0,"CLASSIFICATION_TYPE":"U","NORAD_CAT_ID":38709,"ELEMENT_SET_NO":999,"REV_AT_EPOCH":71539,"BSTAR":6.7999e-5,"MEAN_MOTION_DOT":1.13e-6,"MEAN_MOTION_DDOT":0},{"OBJECT_NAME":"SPOT 6","OBJECT_ID":"2012-047A","EPOCH":"2026-04-26T19:33:24.200352","MEAN_MOTION":14.58521764,"ECCENTRICITY":0.0001219,"INCLINATION":98.2142,"RA_OF_ASC_NODE":184.7177,"ARG_OF_PERICENTER":84.6852,"MEAN_ANOMALY":275.4486,"EPHEMERIS_TYPE":0,"CLASSIFICATION_TYPE":"U","NORAD_CAT_ID":38755,"ELEMENT_SET_NO":999,"REV_AT_EPOCH":72556,"BSTAR":4.9083e-5,"MEAN_MOTION_DOT":1.82e-6,"MEAN_MOTION_DDOT":0},{"OBJECT_NAME":"PLEIADES 1B","OBJECT_ID":"2012-068A","EPOCH":"2026-04-26T20:01:11.670240","MEAN_MOTION":14.5856304,"ECCENTRICITY":0.000104,"INCLINATION":98.1953,"RA_OF_ASC_NODE":192.5891,"ARG_OF_PERICENTER":86.5929,"MEAN_ANOMALY":273.5389,"EPHEMERIS_TYPE":0,"CLASSIFICATION_TYPE":"U","NORAD_CAT_ID":39019,"ELEMENT_SET_NO":999,"REV_AT_EPOCH":71336,"BSTAR":5.8177e-5,"MEAN_MOTION_DOT":2.25e-6,"MEAN_MOTION_DDOT":0},{"OBJECT_NAME":"GOKTURK 2","OBJECT_ID":"2012-073A","EPOCH":"2026-04-26T19:31:03.299232","MEAN_MOTION":14.7549156,"ECCENTRICITY":0.0001915,"INCLINATION":97.6861,"RA_OF_ASC_NODE":316.8122,"ARG_OF_PERICENTER":103.0778,"MEAN_ANOMALY":257.0646,"EPHEMERIS_TYPE":0,"CLASSIFICATION_TYPE":"U","NORAD_CAT_ID":39030,"ELEMENT_SET_NO":999,"REV_AT_EPOCH":71693,"BSTAR":9.7419e-5,"MEAN_MOTION_DOT":6.16e-6,"MEAN_MOTION_DDOT":0},{"OBJECT_NAME":"LANDSAT 8","OBJECT_ID":"2013-008A","EPOCH":"2026-04-26T19:08:25.634688","MEAN_MOTION":14.57132172,"ECCENTRICITY":0.0001217,"INCLINATION":98.1848,"RA_OF_ASC_NODE":187.7136,"ARG_OF_PERICENTER":98.7126,"MEAN_ANOMALY":261.4211,"EPHEMERIS_TYPE":0,"CLASSIFICATION_TYPE":"U","NORAD_CAT_ID":39084,"ELEMENT_SET_NO":999,"REV_AT_EPOCH":69041,"BSTAR":8.0492e-5,"MEAN_MOTION_DOT":3.18e-6,"MEAN_MOTION_DDOT":0}]
