YAOGAN-7                
1 36110U 09069A   26116.63610188  .00000527  00000+0  80203-4 0  9994
2 36110  98.0135   2.8057 0023999 202.7099 157.3052 14.77957614882015
TANDEM-X                
1 36605U 10030A   26116.55099397  .00000481  00000+0  26083-4 0  9992
2 36605  97.4455 124.9929 0001754  91.7389 268.4046 15.19146041878809
CARTOSAT-2B             
1 36795U 10035A   26116.77454133  .00000889  00000+0  12832-3 0  9992
2 36795  98.0001 167.6406 0011313   4.6512 355.4802 14.78664614852253
YAOGAN-10               
1 36834U 10038A   26116.88828828  .00001228  00000+0  14965-3 0  9994
2 36834  97.9024 140.6985 0001338  87.2839  12.1860 14.85184823849599
COSMO-SKYMED 4          
1 37216U 10060A   26116.79821130  .00000754  00000+0  10123-3 0  9998
2 37216  97.8891 301.1420 0001372  79.7551 280.3816 14.82161670836956
RESOURCESAT-2           
1 37387U 11015A   26116.78005324  .00000136  00000+0  82146-4 0  9995
2 37387  98.7667 184.5701 0012083  50.5260 309.6984 14.21599607778871
HAIYANG-2A              
1 37781U 11043A   26116.81352248  .00000018  00000+0  63405-4 0  9994
2 37781  99.3414 120.5687 0006666 183.4704 176.6401 13.75948243739592
RASAT                   
1 37791U 11044D   26116.87077161  .00000579  00000+0  10896-3 0  9997
2 37791  98.0542 209.0578 0020629 359.0931 133.5277 14.68116336785655
SRMSAT                  
1 37841U 11058D   26116.82887624  .00000422  00000+0  85256-4 0  9996
2 37841  19.9735  10.3299 0011674 359.3388  61.7748 14.11563225750556
PLEIADES 1A             
1 38012U 11076F   26116.82511130  .00000348  00000+0  84773-4 0  9993
2 38012  98.1983 192.6137 0001024  78.3668  54.4486 14.58537451764504
ZIYUAN 1-02C (ZY 1-02C) 
1 38038U 11079A   26116.88177115  .00000372  00000+0  13674-3 0  9999
2 38038  98.4095 185.2571 0007693  99.5956  19.9009 14.38170349751838
ARIRANG-3 (KOMPSAT-3)   
1 38338U 12025B   26116.84578375  .00000514  00000+0  11135-3 0  9991
2 38338  98.1135  75.2057 0004016 279.4353  80.6394 14.62159648743846
EXACTVIEW-1 (ADS-1B)    
1 38709U 12039C   26116.84265655  .00000113  00000+0  67999-4 0  9997
2 38709  98.9702 233.0908 0010136 323.9591  36.0903 14.24968703715392
SPOT 6                  
1 38755U 12047A   26116.81486343  .00000182  00000+0  49083-4 0  9993
2 38755  98.2142 184.7177 0001219  84.6852 275.4486 14.58521764725561
PLEIADES 1B             
1 39019U 12068A   26116.83416285  .00000225  00000+0  58177-4 0  9992
2 39019  98.1953 192.5891 0001040  86.5929 273.5389 14.58563040713361
GOKTURK 2               
1 39030U 12073A   26116.81323263  .00000616  00000+0  97419-4 0  9998
2 39030  97.6861 316.8122 0001915 103.0778 257.0646 14.75491560716937
LANDSAT 8               
1 39084U 13008A   26116.79751892  .00000318  00000+0  80492-4 0  9998
2 39084  98.1848 187.7136 0001217  98.7126 261.4211 14.57132172690411
